CSS (TIANHE)            
1 48274U 21035A   24269.79599724  .00065266  00000+0  70560-3 0  9996
2 48274  41.4666 189.6500 0004689  23.4035 336.7017 15.62659650194834
